start=new Date('2021-10-06T00:00:00.000Z').valueOf();
sats=[{"COUNTRY_CODE":"US","EPOCH":"2021-10-05T19:26:15.387648","MEAN_MOTION_DOT":"0.00001621","ECCENTRICITY":"0.00020930","BSTAR":"0.00012773000000","TLE_LINE2":"2 47367  53.0541 115.5970 0002093  89.2665 270.8564 15.06392247 39491","LAUNCH_DATE":"2021-01-20","FILE":"3146344","RCS_SIZE":"LARGE","REV_AT_EPOCH":"3949","MEAN_ELEMENT_THEORY":"SGP4","SITE":"AFETR","ARG_OF_PERICENTER":"89.2665","OBJECT_NAME":"STARLINK-2082","INCLINATION":"53.0541","OBJECT_ID":"2021-005U","MEAN_MOTION_DDOT":"0.0000000000000","DECAY_DATE":null,"ELEMENT_SET_NO":"999","MEAN_MOTION":"15.06392247","CLASSIFICATION_TYPE":"U","RA_OF_ASC_NODE":"115.5970","TIME_SYSTEM":"UTC","NORAD_CAT_ID":"47367","OBJECT_TYPE":"PAYLOAD","PERIOD":"95.593","EPHEMERIS_TYPE":"0","PERIAPSIS":"545.788","TLE_LINE1":"1 47367U 21005U   21278.80990032  .00001621  00000-0  12773-3 0  9999","CENTER_NAME":"EARTH","APOAPSIS":"548.687","MEAN_ANOMALY":"270.8564","REF_FRAME":"TEME","GP_ID":"186305675","SEMIMAJOR_AXIS":"6925.372"},{"SITE":"AFETR","ARG_OF_PERICENTER":"83.0935","OBJECT_NAME":"STARLINK-2084","INCLINATION":"53.0534","OBJECT_ID":"2021-005V","MEAN_MOTION_DOT":"0.00001293","ECCENTRICITY":"0.00015890","COUNTRY_CODE":"US","EPOCH":"2021-10-05T20:51:10.738656","BSTAR":"0.00010570000000","FILE":"3146344","LAUNCH_DATE":"2021-01-20","TLE_LINE2":"2 47368  53.0534 115.3254 0001589  83.0935 277.0235 15.06395228 39506","MEAN_ELEMENT_THEORY":"SGP4","RCS_SIZE":"LARGE","REV_AT_EPOCH":"3950","EPHEMERIS_TYPE":"0","PERIOD":"95.592","TLE_LINE1":"1 47368U 21005V   21278.86887429  .00001293  00000-0  10570-3 0  9999","APOAPSIS":"548.329","CENTER_NAME":"EARTH","PERIAPSIS":"546.128","SEMIMAJOR_AXIS":"6925.363","GP_ID":"186306927","MEAN_ANOMALY":"277.0235","REF_FRAME":"TEME","MEAN_MOTION_DDOT":"0.0000000000000","ELEMENT_SET_NO":"999","DECAY_DATE":null,"CLASSIFICATION_TYPE":"U","RA_OF_ASC_NODE":"115.3254","MEAN_MOTION":"15.06395228","OBJECT_TYPE":"PAYLOAD","TIME_SYSTEM":"UTC","NORAD_CAT_ID":"47368"},{"OBJECT_NAME":"STARLINK-2085","SITE":"AFETR","ARG_OF_PERICENTER":"88.1763","INCLINATION":"53.0567","OBJECT_ID":"2021-005W","BSTAR":"0.00013647000000","MEAN_MOTION_DOT":"0.00001752","ECCENTRICITY":"0.00018890","COUNTRY_CODE":"US","EPOCH":"2021-10-05T20:59:07.810944","MEAN_ELEMENT_THEORY":"SGP4","REV_AT_EPOCH":"3978","RCS_SIZE":"LARGE","FILE":"3146344","TLE_LINE2":"2 47369  53.0567  95.2990 0001889  88.1763 271.9442 15.06399509 39783","LAUNCH_DATE":"2021-01-20","EPHEMERIS_TYPE":"0","PERIOD":"95.592","SEMIMAJOR_AXIS":"6925.350","GP_ID":"186306677","MEAN_ANOMALY":"271.9442","REF_FRAME":"TEME","TLE_LINE1":"1 47369U 21005W   21278.87439596  .00001752  00000-0  13647-3 0  9997","APOAPSIS":"548.523","CENTER_NAME":"EARTH","PERIAPSIS":"545.907","DECAY_DATE":null,"ELEMENT_SET_NO":"999","MEAN_MOTION_DDOT":"0.0000000000000","OBJECT_TYPE":"PAYLOAD","TIME_SYSTEM":"UTC","NORAD_CAT_ID":"47369","CLASSIFICATION_TYPE":"U","RA_OF_ASC_NODE":"95.2990","MEAN_MOTION":"15.06399509"},{"OBJECT_NAME":"STARLINK-2086","ARG_OF_PERICENTER":"92.4314","SITE":"AFETR","OBJECT_ID":"2021-005X","INCLINATION":"53.0651","BSTAR":"0.00008292200000","EPOCH":"2021-10-05T19:58:05.990592","COUNTRY_CODE":"US","ECCENTRICITY":"0.00018000","MEAN_MOTION_DOT":"0.00000954","REV_AT_EPOCH":"4006","RCS_SIZE":"LARGE","MEAN_ELEMENT_THEORY":"SGP4","TLE_LINE2":"2 47370  53.0651  75.4450 0001800  92.4314 267.6882 15.06397636 40065","LAUNCH_DATE":"2021-01-20","FILE":"3146344","PERIOD":"95.592","EPHEMERIS_TYPE":"0","REF_FRAME":"TEME","MEAN_ANOMALY":"267.6882","GP_ID":"186305425","SEMIMAJOR_AXIS":"6925.356","PERIAPSIS":"545.974","APOAPSIS":"548.467","CENTER_NAME":"EARTH","TLE_LINE1":"1 47370U 21005X   21278.83201378  .00000954  00000-0  82922-4 0  9996","ELEMENT_SET_NO":"999","DECAY_DATE":null,"MEAN_MOTION_DDOT":"0.0000000000000","NORAD_CAT_ID":"47370","TIME_SYSTEM":"UTC","OBJECT_TYPE":"PAYLOAD","MEAN_MOTION":"15.06397636","CLASSIFICATION_TYPE":"U","RA_OF_ASC_NODE":"75.4450"},{"MEAN_MOTION":"15.06388376","CLASSIFICATION_TYPE":"U","RA_OF_ASC_NODE":"115.5531","TIME_SYSTEM":"UTC","NORAD_CAT_ID":"47371","OBJECT_TYPE":"PAYLOAD","MEAN_MOTION_DDOT":"0.0000000000000","ELEMENT_SET_NO":"999","DECAY_DATE":null,"PERIAPSIS":"545.843","TLE_LINE1":"1 47371U 21005Y   21278.81727852  .00000516  00000-0  53539-4 0  9991","CENTER_NAME":"EARTH","APOAPSIS":"548.656","MEAN_ANOMALY":"276.9905","REF_FRAME":"TEME","GP_ID":"186306176","SEMIMAJOR_AXIS":"6925.384","PERIOD":"95.593","EPHEMERIS_TYPE":"0","TLE_LINE2":"2 47371  53.0538 115.5531 0002031  83.1315 276.9905 15.06388376 39496","LAUNCH_DATE":"2021-01-20","FILE":"3146344","RCS_SIZE":"LARGE","REV_AT_EPOCH":"3949","MEAN_ELEMENT_THEORY":"SGP4","COUNTRY_CODE":"US","EPOCH":"2021-10-05T19:36:52.864128","MEAN_MOTION_DOT":"0.00000516","ECCENTRICITY":"0.00020310","BSTAR":"0.00005353900000","INCLINATION":"53.0538","OBJECT_ID":"2021-005Y","SITE":"AFETR","ARG_OF_PERICENTER":"83.1315","OBJECT_NAME":"STARLINK-2088"},{"EPOCH":"2021-10-05T20:21:17.911008","COUNTRY_CODE":"US","ECCENTRICITY":"0.00016640","MEAN_MOTION_DOT":"0.00001035","BSTAR":"0.00008838400000","TLE_LINE2":"2 47372  53.0544 110.4006 0001664  83.5265 276.5913 15.06389458 39569","LAUNCH_DATE":"2021-01-20","FILE":"3146344","REV_AT_EPOCH":"3956","RCS_SIZE":"LARGE","MEAN_ELEMENT_THEORY":"SGP4","ARG_OF_PERICENTER":"83.5265","SITE":"AFETR","OBJECT_NAME":"STARLINK-2089","OBJECT_ID":"2021-005Z","INCLINATION":"53.0544","MEAN_MOTION_DDOT":"0.0000000000000","DECAY_DATE":null,"ELEMENT_SET_NO":"999","MEAN_MOTION":"15.06389458","RA_OF_ASC_NODE":"110.4006","CLASSIFICATION_TYPE":"U","NORAD_CAT_ID":"47372","TIME_SYSTEM":"UTC","OBJECT_TYPE":"PAYLOAD","PERIOD":"95.593","EPHEMERIS_TYPE":"0","PERIAPSIS":"546.093","CENTER_NAME":"EARTH","APOAPSIS":"548.398","TLE_LINE1":"1 47372U 21005Z   21278.84812397  .00001035  00000-0  88384-4 0  9997","REF_FRAME":"TEME","MEAN_ANOMALY":"276.5913","SEMIMAJOR_AXIS":"6925.381","GP_ID":"186306427"},{"MEAN_MOTION":"15.06388621","CLASSIFICATION_TYPE":"U","RA_OF_ASC_NODE":"115.5641","NORAD_CAT_ID":"47373","TIME_SYSTEM":"UTC","OBJECT_TYPE":"PAYLOAD","MEAN_MOTION_DDOT":"0.0000000000000","ELEMENT_SET_NO":"999","DECAY_DATE":null,"PERIAPSIS":"546.026","CENTER_NAME":"EARTH","APOAPSIS":"548.471","TLE_LINE1":"1 47373U 21005AA  21278.81359318  .00001210  00000-0  10013-3 0  9992","REF_FRAME":"TEME","MEAN_ANOMALY":"266.6078","GP_ID":"186307178","SEMIMAJOR_AXIS":"6925.383","PERIOD":"95.593","EPHEMERIS_TYPE":"0","TLE_LINE2":"2 47373  53.0536 115.5641 0001765  93.5113 266.6078 15.06388621 39492","LAUNCH_DATE":"2021-01-20","FILE":"3146344","RCS_SIZE":"LARGE","REV_AT_EPOCH":"3949","MEAN_ELEMENT_THEORY":"SGP4","EPOCH":"2021-10-05T19:31:34.450752","COUNTRY_CODE":"US","ECCENTRICITY":"0.00017650","MEAN_MOTION_DOT":"0.00001210","BSTAR":"0.00010013000000","OBJECT_ID":"2021-005AA","INCLINATION":"53.0536","ARG_OF_PERICENTER":"93.5113","SITE":"AFETR","OBJECT_NAME":"STARLINK-2092"},{"INCLINATION":"53.0533","OBJECT_ID":"2021-005AB","SITE":"AFETR","ARG_OF_PERICENTER":"85.9413","OBJECT_NAME":"STARLINK-2093","FILE":"3146344","LAUNCH_DATE":"2021-01-20","TLE_LINE2":"2 47374  53.0533 115.5138 0001851  85.9413 274.1788 15.06392080 39491","MEAN_ELEMENT_THEORY":"SGP4","RCS_SIZE":"LARGE","REV_AT_EPOCH":"3949","MEAN_MOTION_DOT":"-0.00000463","ECCENTRICITY":"0.00018510","COUNTRY_CODE":"US","EPOCH":"2021-10-05T19:52:48.182880","BSTAR":"-0.00001216100000","TLE_LINE1":"1 47374U 21005AB  21278.82833545 -.00000463  00000-0 -12161-4 0  9991","CENTER_NAME":"EARTH","APOAPSIS":"548.520","PERIAPSIS":"545.956","GP_ID":"186305926","SEMIMAJOR_AXIS":"6925.373","MEAN_ANOMALY":"274.1788","REF_FRAME":"TEME","EPHEMERIS_TYPE":"0","PERIOD":"95.593","CLASSIFICATION_TYPE":"U","RA_OF_ASC_NODE":"115.5138","MEAN_MOTION":"15.06392080","OBJECT_TYPE":"PAYLOAD","TIME_SYSTEM":"UTC","NORAD_CAT_ID":"47374","MEAN_MOTION_DDOT":"0.0000000000000","ELEMENT_SET_NO":"999","DECAY_DATE":null},{"ECCENTRICITY":"0.00021570","MEAN_MOTION_DOT":"-0.00000591","EPOCH":"2021-10-05T20:08:43.067040","COUNTRY_CODE":"US","BSTAR":"-0.00002075600000","FILE":"3146344","LAUNCH_DATE":"2021-01-20","TLE_LINE2":"2 47375  53.0566 115.4569 0002157  81.3152 278.8081 15.06396387 39496","MEAN_ELEMENT_THEORY":"SGP4","RCS_SIZE":"LARGE","REV_AT_EPOCH":"3949","ARG_OF_PERICENTER":"81.3152","SITE":"AFETR","OBJECT_NAME":"STARLINK-2094","OBJECT_ID":"2021-005AC","INCLINATION":"53.0566","MEAN_MOTION_DDOT":"0.0000000000000","DECAY_DATE":null,"ELEMENT_SET_NO":"999","CLASSIFICATION_TYPE":"U","RA_OF_ASC_NODE":"115.4569","MEAN_MOTION":"15.06396387","OBJECT_TYPE":"PAYLOAD","NORAD_CAT_ID":"47375","TIME_SYSTEM":"UTC","EPHEMERIS_TYPE":"0","PERIOD":"95.592","CENTER_NAME":"EARTH","APOAPSIS":"548.718","TLE_LINE1":"1 47375U 21005AC  21278.83938735 -.00000591  00000-0 -20756-4 0  9991","PERIAPSIS":"545.731","GP_ID":"186305676","SEMIMAJOR_AXIS":"6925.360","REF_FRAME":"TEME","MEAN_ANOMALY":"278.8081"},{"INCLINATION":"53.0557","OBJECT_ID":"2021-005AD","SITE":"AFETR","ARG_OF_PERICENTER":"83.9477","OBJECT_NAME":"STARLINK-2096","LAUNCH_DATE":"2021-01-20","TLE_LINE2":"2 47376  53.0557 115.4351 0002106  83.9477 276.1752 15.06390980 39497","FILE":"3146344","REV_AT_EPOCH":"3949","RCS_SIZE":"LARGE","MEAN_ELEMENT_THEORY":"SGP4","COUNTRY_CODE":"US","EPOCH":"2021-10-05T20:14:02.029920","MEAN_MOTION_DOT":"-0.00000815","ECCENTRICITY":"0.00021060","BSTAR":"-0.00003579900000","PERIAPSIS":"545.783","TLE_LINE1":"1 47376U 21005AD  21278.84307905 -.00000815  00000-0 -35799-4 0  9994","APOAPSIS":"548.700","CENTER_NAME":"EARTH","MEAN_ANOMALY":"276.1752","REF_FRAME":"TEME","SEMIMAJOR_AXIS":"6925.376","GP_ID":"186306928","PERIOD":"95.593","EPHEMERIS_TYPE":"0","MEAN_MOTION":"15.06390980","CLASSIFICATION_TYPE":"U","RA_OF_ASC_NODE":"115.4351","TIME_SYSTEM":"UTC","NORAD_CAT_ID":"47376","OBJECT_TYPE":"PAYLOAD","MEAN_MOTION_DDOT":"0.0000000000000","DECAY_DATE":null,"ELEMENT_SET_NO":"999"}];
